{"type": "FeatureCollection", "features": [ {"type": "Feature", "properties": {"norad_id": 34375, "name": "IRIDIUM 33 DEB", "group": "iridium-33-debris", "lat": 7.797563573041035, "lon": -177.3856820534533, "alt_km": 864.0966187125614, "timestamp": "2025-12-14T03:55:53.172608+00:00", "meta": {"OBJECT_NAME": "IRIDIUM 33 DEB", "OBJECT_ID": "1997-051FT", "EPOCH": "2025-12-12T23:49:03.895680", "MEAN_MOTION": 14.17992706, "ECCENTRICITY": 0.01033277, "INCLINATION": 86.4327, "RA_OF_ASC_NODE": 182.597, "ARG_OF_PERICENTER": 125.9322, "MEAN_ANOMALY": 27.0467, "EPHEMERIS_TYPE": 0, "CLASSIFICATION_TYPE": "U", "NORAD_CAT_ID": 34375, "ELEMENT_SET_NO": 999, "REV_AT_EPOCH": 86715, "BSTAR": 0.00059451222, "MEAN_MOTION_DOT": 1.302e-05, "MEAN_MOTION_DDOT": 0}, "tle": {"line1": "1 34375U 97051FT  25346.99240620  .00001302  00000+0  59451-3 0  9998", "line2": "2 34375  86.4327 182.5970 0103327 125.9322  27.0467 14.17992706867155"}}, "geometry": {"type": "Point", "coordinates": [-177.3856820534533, 7.797563573041035]}}, {"type": "Feature", "properties": {"norad_id": 34376, "name": "IRIDIUM 33 DEB", "group": "iridium-33-debris", "lat": -69.68087315909057, "lon": -164.03257021727381, "alt_km": 691.4676489978965, "timestamp": "2025-12-14T03:55:53.172619+00:00", "meta": {"OBJECT_NAME": "IRIDIUM 33 DEB", "OBJECT_ID": "1997-051FU", "EPOCH": "2025-12-13T05:26:52.439712", "MEAN_MOTION": 14.62582751, "ECCENTRICITY": 0.00272182, "INCLINATION": 86.2989, "RA_OF_ASC_NODE": 6.321, "ARG_OF_PERICENTER": 165.0092, "MEAN_ANOMALY": 195.1933, "EPHEMERIS_TYPE": 0, "CLASSIFICATION_TYPE": "U", "NORAD_CAT_ID": 34376, "ELEMENT_SET_NO": 999, "REV_AT_EPOCH": 88014, "BSTAR": 0.0024180552, "MEAN_MOTION_DOT": 0.00012374, "MEAN_MOTION_DDOT": 0}, "tle": {"line1": "1 34376U 97051FU  25347.22699583  .00012374  00000+0  24181-2 0  9994", "line2": "2 34376  86.2989   6.3210 0027218 165.0092 195.1933 14.62582751880145"}}, "geometry": {"type": "Point", "coordinates": [-164.03257021727381, -69.68087315909057]}}, {"type": "Feature", "properties": {"norad_id": 34486, "name": "IRIDIUM 33 DEB", "group": "iridium-33-debris", "lat": -82.54600460668722, "lon": -17.447861694836277, "alt_km": 596.3229875605884, "timestamp": "2025-12-14T03:55:53.172630+00:00", "meta": {"OBJECT_NAME": "IRIDIUM 33 DEB", "OBJECT_ID": "1997-051GB", "EPOCH": "2025-12-13T02:53:20.546016", "MEAN_MOTION": 14.95831821, "ECCENTRICITY": 0.00136534, "INCLINATION": 86.3941, "RA_OF_ASC_NODE": 11.8488, "ARG_OF_PERICENTER": 112.3422, "MEAN_ANOMALY": 308.9128, "EPHEMERIS_TYPE": 0, "CLASSIFICATION_TYPE": "U", "NORAD_CAT_ID": 34486, "ELEMENT_SET_NO": 999, "REV_AT_EPOCH": 88992, "BSTAR": 0.0029300788, "MEAN_MOTION_DOT": 0.0003291, "MEAN_MOTION_DDOT": 0}, "tle": {"line1": "1 34486U 97051GB  25347.12037669  .00032910  00000+0  29301-2 0  9993", "line2": "2 34486  86.3941  11.8488 0013653 112.3422 308.9128 14.95831821889920"}}, "geometry": {"type": "Point", "coordinates": [-17.447861694836277, -82.54600460668722]}}, {"type": "Feature", "properties": {"norad_id": 34487, "name": "IRIDIUM 33 DEB", "group": "iridium-33-debris", "lat": 21.912931906241745, "lon": 13.238281524727627, "alt_km": 752.3663842092419, "timestamp": "2025-12-14T03:55:53.172640+00:00", "meta": {"OBJECT_NAME": "IRIDIUM 33 DEB", "OBJECT_ID": "1997-051GC", "EPOCH": "2025-12-13T01:29:47.810688", "MEAN_MOTION": 14.43216844, "ECCENTRICITY": 0.00327796, "INCLINATION": 86.3434, "RA_OF_ASC_NODE": 12.2383, "ARG_OF_PERICENTER": 127.3536, "MEAN_ANOMALY": 296.0452, "EPHEMERIS_TYPE": 0, "CLASSIFICATION_TYPE": "U", "NORAD_CAT_ID": 34487, "ELEMENT_SET_NO": 999, "REV_AT_EPOCH": 88253, "BSTAR": 0.00027272149, "MEAN_MOTION_DOT": 9.43e-06, "MEAN_MOTION_DDOT": 0}, "tle": {"line1": "1 34487U 97051GC  25347.06235892  .00000943  00000+0  27272-3 0  9992", "line2": "2 34487  86.3434  12.2383 0032779 127.3536 296.0452 14.43216844882531"}}, "geometry": {"type": "Point", "coordinates": [13.238281524727627, 21.912931906241745]}}, {"type": "Feature", "properties": {"norad_id": 34488, "name": "IRIDIUM 33 DEB", "group": "iridium-33-debris", "lat": 72.50704795525893, "lon": -43.119301428327205, "alt_km": 461.0971992285822, "timestamp": "2025-12-14T03:55:53.172651+00:00", "meta": {"OBJECT_NAME": "IRIDIUM 33 DEB", "OBJECT_ID": "1997-051GD", "EPOCH": "2025-12-12T09:13:17.706144", "MEAN_MOTION": 15.29287842, "ECCENTRICITY": 0.0013375, "INCLINATION": 86.3234, "RA_OF_ASC_NODE": 305.9899, "ARG_OF_PERICENTER": 52.1887, "MEAN_ANOMALY": 308.0569, "EPHEMERIS_TYPE": 0, "CLASSIFICATION_TYPE": "U", "NORAD_CAT_ID": 34488, "ELEMENT_SET_NO": 999, "REV_AT_EPOCH": 89234, "BSTAR": 0.0061124826, "MEAN_MOTION_DOT": 0.00177845, "MEAN_MOTION_DDOT": 0}, "tle": {"line1": "1 34488U 97051GD  25346.38423271  .00177845  00000+0  61125-2 0  9997", "line2": "2 34488  86.3234 305.9899 0013375  52.1887 308.0569 15.29287842892343"}}, "geometry": {"type": "Point", "coordinates": [-43.119301428327205, 72.50704795525893]}}, {"type": "Feature", "properties": {"norad_id": 34492, "name": "IRIDIUM 33 DEB", "group": "iridium-33-debris", "lat": 23.74054255610617, "lon": -24.391659824698028, "alt_km": 922.7751328525001, "timestamp": "2025-12-14T03:55:53.172662+00:00", "meta": {"OBJECT_NAME": "IRIDIUM 33 DEB", "OBJECT_ID": "1997-051GH", "EPOCH": "2025-12-12T23:19:24.163680", "MEAN_MOTION": 14.25737057, "ECCENTRICITY": 0.01891196, "INCLINATION": 86.4723, "RA_OF_ASC_NODE": 334.5351, "ARG_OF_PERICENTER": 237.4159, "MEAN_ANOMALY": 151.0038, "EPHEMERIS_TYPE": 0, "CLASSIFICATION_TYPE": "U", "NORAD_CAT_ID": 34492, "ELEMENT_SET_NO": 999, "REV_AT_EPOCH": 85062, "BSTAR": 0.0063651158, "MEAN_MOTION_DOT": 0.00018276, "MEAN_MOTION_DDOT": 0}, "tle": {"line1": "1 34492U 97051GH  25346.97180745  .00018276  00000+0  63651-2 0  9991", "line2": "2 34492  86.4723 334.5351 0189119 237.4159 151.0038 14.25737057850628"}}, "geometry": {"type": "Point", "coordinates": [-24.391659824698028, 23.74054255610617]}}, {"type": "Feature", "properties": {"norad_id": 34497, "name": "IRIDIUM 33 DEB", "group": "iridium-33-debris", "lat": -86.15965523857268, "lon": -52.33680901019699, "alt_km": 784.2269349145254, "timestamp": "2025-12-14T03:55:53.172672+00:00", "meta": {"OBJECT_NAME": "IRIDIUM 33 DEB", "OBJECT_ID": "1997-051GN", "EPOCH": "2025-12-13T05:03:26.883648", "MEAN_MOTION": 14.27456256, "ECCENTRICITY": 0.00787638, "INCLINATION": 86.2779, "RA_OF_ASC_NODE": 52.2004, "ARG_OF_PERICENTER": 338.0287, "MEAN_ANOMALY": 77.1802, "EPHEMERIS_TYPE": 0, "CLASSIFICATION_TYPE": "U", "NORAD_CAT_ID": 34497, "ELEMENT_SET_NO": 999, "REV_AT_EPOCH": 86890, "BSTAR": 0.00091393748, "MEAN_MOTION_DOT": 2.335e-05, "MEAN_MOTION_DDOT": 0}, "tle": {"line1": "1 34497U 97051GN  25347.21072782  .00002335  00000+0  91394-3 0  9990", "line2": "2 34497  86.2779  52.2004 0078763 338.0287  77.1802 14.27456256868901"}}, "geometry": {"type": "Point", "coordinates": [-52.33680901019699, -86.15965523857268]}}, {"type": "Feature", "properties": {"norad_id": 34508, "name": "IRIDIUM 33 DEB", "group": "iridium-33-debris", "lat": 56.167206438751386, "lon": -83.39624868706252, "alt_km": 724.6719656205769, "timestamp": "2025-12-14T03:55:53.172683+00:00", "meta": {"OBJECT_NAME": "IRIDIUM 33 DEB", "OBJECT_ID": "1997-051GZ", "EPOCH": "2025-12-12T17:57:57.853728", "MEAN_MOTION": 14.3842932, "ECCENTRICITY": 0.00660592, "INCLINATION": 86.3696, "RA_OF_ASC_NODE": 102.6391, "ARG_OF_PERICENTER": 172.9661, "MEAN_ANOMALY": 187.2481, "EPHEMERIS_TYPE": 0, "CLASSIFICATION_TYPE": "U", "NORAD_CAT_ID": 34508, "ELEMENT_SET_NO": 999, "REV_AT_EPOCH": 87309, "BSTAR": 0.002129503, "MEAN_MOTION_DOT": 6.683e-05, "MEAN_MOTION_DDOT": 0}, "tle": {"line1": "1 34508U 97051GZ  25346.74858627  .00006683  00000+0  21295-2 0  9992", "line2": "2 34508  86.3696 102.6391 0066059 172.9661 187.2481 14.38429320873094"}}, "geometry": {"type": "Point", "coordinates": [-83.39624868706252, 56.167206438751386]}}, {"type": "Feature", "properties": {"norad_id": 34521, "name": "IRIDIUM 33 DEB", "group": "iridium-33-debris", "lat": 69.21270481723408, "lon": 39.520005946456855, "alt_km": 676.4840173955481, "timestamp": "2025-12-14T03:55:53.172693+00:00", "meta": {"OBJECT_NAME": "IRIDIUM 33 DEB", "OBJECT_ID": "1997-051HN", "EPOCH": "2025-12-13T04:38:21.799968", "MEAN_MOTION": 14.63375371, "ECCENTRICITY": 0.00015966, "INCLINATION": 86.3805, "RA_OF_ASC_NODE": 30.3484, "ARG_OF_PERICENTER": 211.9886, "MEAN_ANOMALY": 148.123, "EPHEMERIS_TYPE": 0, "CLASSIFICATION_TYPE": "U", "NORAD_CAT_ID": 34521, "ELEMENT_SET_NO": 999, "REV_AT_EPOCH": 88479, "BSTAR": 0.001295345, "MEAN_MOTION_DOT": 6.715e-05, "MEAN_MOTION_DDOT": 0}, "tle": {"line1": "1 34521U 97051HN  25347.19330787  .00006715  00000+0  12953-2 0  9996", "line2": "2 34521  86.3805  30.3484 0001596 211.9886 148.1230 14.63375371884790"}}, "geometry": {"type": "Point", "coordinates": [39.520005946456855, 69.21270481723408]}}, {"type": "Feature", "properties": {"norad_id": 34525, "name": "IRIDIUM 33 DEB", "group": "iridium-33-debris", "lat": 35.95065831833707, "lon": -136.40051852813764, "alt_km": 743.637349372013, "timestamp": "2025-12-14T03:55:53.172704+00:00", "meta": {"OBJECT_NAME": "IRIDIUM 33 DEB", "OBJECT_ID": "1997-051HS", "EPOCH": "2025-12-13T04:05:45.430944", "MEAN_MOTION": 14.42907914, "ECCENTRICITY": 0.00066513, "INCLINATION": 86.373, "RA_OF_ASC_NODE": 46.6598, "ARG_OF_PERICENTER": 94.3043, "MEAN_ANOMALY": 293.9276, "EPHEMERIS_TYPE": 0, "CLASSIFICATION_TYPE": "U", "NORAD_CAT_ID": 34525, "ELEMENT_SET_NO": 999, "REV_AT_EPOCH": 88094, "BSTAR": 0.00056401986, "MEAN_MOTION_DOT": 1.904e-05, "MEAN_MOTION_DDOT": 0}, "tle": {"line1": "1 34525U 97051HS  25347.17066471  .00001904  00000+0  56402-3 0  9997", "line2": "2 34525  86.3730  46.6598 0006651  94.3043 293.9276 14.42907914880945"}}, "geometry": {"type": "Point", "coordinates": [-136.40051852813764, 35.95065831833707]}}]}